{"fetched_at":"2026-07-07T07:58:12.386Z","source":"https://celestrak.org/NORAD/elements/gp.php?GROUP=planet&FORMAT=JSON","constellation":"skysat","records":[{"OBJECT_NAME":"SKYSAT-A","OBJECT_ID":"2013-066C","EPOCH":"2026-07-06T16:49:21.119232","CLASSIFICATION_TYPE":"U","MEAN_MOTION":15.13083788,"ECCENTRICITY":0.001987,"INCLINATION":97.3802,"RA_OF_ASC_NODE":236.4763,"ARG_OF_PERICENTER":244.4924,"MEAN_ANOMALY":115.4252,"EPHEMERIS_TYPE":0,"NORAD_CAT_ID":39418,"ELEMENT_SET_NO":999,"REV_AT_EPOCH":69143,"BSTAR":0.00015799,"MEAN_MOTION_DOT":0.00002744,"MEAN_MOTION_DDOT":0},{"OBJECT_NAME":"SKYSAT-B","OBJECT_ID":"2014-037D","EPOCH":"2026-07-06T08:33:26.320896","CLASSIFICATION_TYPE":"U","MEAN_MOTION":14.88077956,"ECCENTRICITY":0.00048378,"INCLINATION":98.3848,"RA_OF_ASC_NODE":147.4157,"ARG_OF_PERICENTER":202.7715,"MEAN_ANOMALY":157.3286,"EPHEMERIS_TYPE":0,"NORAD_CAT_ID":40072,"ELEMENT_SET_NO":999,"REV_AT_EPOCH":64881,"BSTAR":0.00015917632,"MEAN_MOTION_DOT":0.00001402,"MEAN_MOTION_DDOT":0},{"OBJECT_NAME":"SKYSAT-C1","OBJECT_ID":"2016-040C","EPOCH":"2026-07-06T14:58:56.636832","CLASSIFICATION_TYPE":"U","MEAN_MOTION":15.36647042,"ECCENTRICITY":0.0001234,"INCLINATION":96.9556,"RA_OF_ASC_NODE":218.2931,"ARG_OF_PERICENTER":14.293,"MEAN_ANOMALY":345.835,"EPHEMERIS_TYPE":0,"NORAD_CAT_ID":41601,"ELEMENT_SET_NO":999,"REV_AT_EPOCH":56085,"BSTAR":0.0002164,"MEAN_MOTION_DOT":0.00007669,"MEAN_MOTION_DDOT":0},{"OBJECT_NAME":"SKYSAT-C4","OBJECT_ID":"2016-058B","EPOCH":"2026-07-06T14:01:40.132128","CLASSIFICATION_TYPE":"U","MEAN_MOTION":15.49232259,"ECCENTRICITY":0.0003097,"INCLINATION":96.9168,"RA_OF_ASC_NODE":208.5508,"ARG_OF_PERICENTER":132.5981,"MEAN_ANOMALY":227.5533,"EPHEMERIS_TYPE":0,"NORAD_CAT_ID":41771,"ELEMENT_SET_NO":999,"REV_AT_EPOCH":54847,"BSTAR":0.00026186,"MEAN_MOTION_DOT":0.00014207,"MEAN_MOTION_DDOT":0},{"OBJECT_NAME":"SKYSAT-C5","OBJECT_ID":"2016-058C","EPOCH":"2026-07-06T14:24:43.688160","CLASSIFICATION_TYPE":"U","MEAN_MOTION":15.3476254,"ECCENTRICITY":0.0002418,"INCLINATION":97.0458,"RA_OF_ASC_NODE":227.3764,"ARG_OF_PERICENTER":177.1125,"MEAN_ANOMALY":183.0133,"EPHEMERIS_TYPE":0,"NORAD_CAT_ID":41772,"ELEMENT_SET_NO":999,"REV_AT_EPOCH":54672,"BSTAR":0.00019549,"MEAN_MOTION_DOT":0.00006513,"MEAN_MOTION_DDOT":0},{"OBJECT_NAME":"SKYSAT-C2","OBJECT_ID":"2016-058D","EPOCH":"2026-07-06T14:15:23.124096","CLASSIFICATION_TYPE":"U","MEAN_MOTION":15.4253765,"ECCENTRICITY":0.000256,"INCLINATION":97.0163,"RA_OF_ASC_NODE":208.9626,"ARG_OF_PERICENTER":24.307,"MEAN_ANOMALY":335.8299,"EPHEMERIS_TYPE":0,"NORAD_CAT_ID":41773,"ELEMENT_SET_NO":999,"REV_AT_EPOCH":54804,"BSTAR":0.0002435,"MEAN_MOTION_DOT":0.00010488,"MEAN_MOTION_DDOT":0},{"OBJECT_NAME":"SKYSAT-C3","OBJECT_ID":"2016-058E","EPOCH":"2026-07-06T14:28:35.006016","CLASSIFICATION_TYPE":"U","MEAN_MOTION":15.53419232,"ECCENTRICITY":0.0001906,"INCLINATION":96.9001,"RA_OF_ASC_NODE":217.712,"ARG_OF_PERICENTER":134.7094,"MEAN_ANOMALY":225.4316,"EPHEMERIS_TYPE":0,"NORAD_CAT_ID":41774,"ELEMENT_SET_NO":999,"REV_AT_EPOCH":54912,"BSTAR":0.0003022,"MEAN_MOTION_DOT":0.00019057,"MEAN_MOTION_DDOT":0},{"OBJECT_NAME":"SKYSAT-C11","OBJECT_ID":"2017-068A","EPOCH":"2026-07-06T09:14:18.059136","CLASSIFICATION_TYPE":"U","MEAN_MOTION":15.58959674,"ECCENTRICITY":0.00006177,"INCLINATION":97.4373,"RA_OF_ASC_NODE":337.0679,"ARG_OF_PERICENTER":157.6549,"MEAN_ANOMALY":202.4734,"EPHEMERIS_TYPE":0,"NORAD_CAT_ID":42987,"ELEMENT_SET_NO":999,"REV_AT_EPOCH":48623,"BSTAR":0.0003866172,"MEAN_MOTION_DOT":0.00029976,"MEAN_MOTION_DDOT":0},{"OBJECT_NAME":"SKYSAT-C10","OBJECT_ID":"2017-068B","EPOCH":"2026-07-06T20:26:09.286368","CLASSIFICATION_TYPE":"U","MEAN_MOTION":15.34999647,"ECCENTRICITY":0.0001295,"INCLINATION":97.4529,"RA_OF_ASC_NODE":324.897,"ARG_OF_PERICENTER":109.0995,"MEAN_ANOMALY":251.0388,"EPHEMERIS_TYPE":0,"NORAD_CAT_ID":42988,"ELEMENT_SET_NO":999,"REV_AT_EPOCH":48537,"BSTAR":0.00025401,"MEAN_MOTION_DOT":0.00008544,"MEAN_MOTION_DDOT":0},{"OBJECT_NAME":"SKYSAT-C9","OBJECT_ID":"2017-068C","EPOCH":"2026-07-06T20:08:27.412224","CLASSIFICATION_TYPE":"U","MEAN_MOTION":15.42069291,"ECCENTRICITY":0.0009202,"INCLINATION":97.4448,"RA_OF_ASC_NODE":326.0091,"ARG_OF_PERICENTER":71.4255,"MEAN_ANOMALY":288.7991,"EPHEMERIS_TYPE":0,"NORAD_CAT_ID":42989,"ELEMENT_SET_NO":999,"REV_AT_EPOCH":48578,"BSTAR":0.00023461,"MEAN_MOTION_DOT":0.0000995,"MEAN_MOTION_DDOT":0},{"OBJECT_NAME":"SKYSAT-C8","OBJECT_ID":"2017-068D","EPOCH":"2026-07-06T17:27:42.955200","CLASSIFICATION_TYPE":"U","MEAN_MOTION":15.3737518,"ECCENTRICITY":0.0001193,"INCLINATION":97.4547,"RA_OF_ASC_NODE":324.6471,"ARG_OF_PERICENTER":96.8882,"MEAN_ANOMALY":263.2498,"EPHEMERIS_TYPE":0,"NORAD_CAT_ID":42990,"ELEMENT_SET_NO":999,"REV_AT_EPOCH":48531,"BSTAR":0.00024869,"MEAN_MOTION_DOT":0.00009028,"MEAN_MOTION_DDOT":0},{"OBJECT_NAME":"SKYSAT-C7","OBJECT_ID":"2017-068E","EPOCH":"2026-07-06T20:26:51.262080","CLASSIFICATION_TYPE":"U","MEAN_MOTION":15.37329351,"ECCENTRICITY":0.0006434,"INCLINATION":97.4556,"RA_OF_ASC_NODE":325.764,"ARG_OF_PERICENTER":48.3351,"MEAN_ANOMALY":311.8443,"EPHEMERIS_TYPE":0,"NORAD_CAT_ID":42991,"ELEMENT_SET_NO":999,"REV_AT_EPOCH":48539,"BSTAR":0.00022472,"MEAN_MOTION_DOT":0.00008141,"MEAN_MOTION_DDOT":0},{"OBJECT_NAME":"SKYSAT-C6","OBJECT_ID":"2017-068F","EPOCH":"2026-07-06T20:15:26.667360","CLASSIFICATION_TYPE":"U","MEAN_MOTION":15.34319314,"ECCENTRICITY":0.0005175,"INCLINATION":97.4593,"RA_OF_ASC_NODE":325.6474,"ARG_OF_PERICENTER":98.0582,"MEAN_ANOMALY":262.1248,"EPHEMERIS_TYPE":0,"NORAD_CAT_ID":42992,"ELEMENT_SET_NO":999,"REV_AT_EPOCH":48533,"BSTAR":0.00021494,"MEAN_MOTION_DOT":0.00007063,"MEAN_MOTION_DDOT":0},{"OBJECT_NAME":"SKYSAT-C12","OBJECT_ID":"2018-099AR","EPOCH":"2026-07-06T20:37:48.497376","CLASSIFICATION_TYPE":"U","MEAN_MOTION":15.49578889,"ECCENTRICITY":0.0005886,"INCLINATION":96.9257,"RA_OF_ASC_NODE":210.312,"ARG_OF_PERICENTER":89.2485,"MEAN_ANOMALY":270.9442,"EPHEMERIS_TYPE":0,"NORAD_CAT_ID":43797,"ELEMENT_SET_NO":999,"REV_AT_EPOCH":42490,"BSTAR":0.00026105,"MEAN_MOTION_DOT":0.00014343,"MEAN_MOTION_DDOT":0}]}
